{"type": "FeatureCollection", "features": [ {"type": "Feature", "properties": {"norad_id": 29750, "name": "FENGYUN 1C DEB", "group": "fengyun-1c-debris", "lat": -73.96687282144309, "lon": 160.66770697177688, "alt_km": 852.593405157133, "timestamp": "2025-12-09T21:34:11.678878+00:00", "meta": {"OBJECT_NAME": "FENGYUN 1C DEB", "OBJECT_ID": "1999-025AQ", "EPOCH": "2025-12-09T01:52:51.345120", "MEAN_MOTION": 14.09638744, "ECCENTRICITY": 0.00351666, "INCLINATION": 98.7548, "RA_OF_ASC_NODE": 12.2975, "ARG_OF_PERICENTER": 312.0376, "MEAN_ANOMALY": 103.9393, "EPHEMERIS_TYPE": 0, "CLASSIFICATION_TYPE": "U", "NORAD_CAT_ID": 29750, "ELEMENT_SET_NO": 999, "REV_AT_EPOCH": 97022, "BSTAR": 0.00034528591, "MEAN_MOTION_DOT": 5.65e-06, "MEAN_MOTION_DDOT": 0}, "tle": {"line1": "1 29750U 99025AQ  25343.07837205  .00000565  00000+0  34529-3 0  9998", "line2": "2 29750  98.7548  12.2975 0035166 312.0376 103.9393 14.09638744970229"}}, "geometry": {"type": "Point", "coordinates": [160.66770697177688, -73.96687282144309]}}, {"type": "Feature", "properties": {"norad_id": 29751, "name": "FENGYUN 1C DEB", "group": "fengyun-1c-debris", "lat": -69.8691258026038, "lon": 167.64763847124453, "alt_km": 835.7119201301475, "timestamp": "2025-12-09T21:34:11.678888+00:00", "meta": {"OBJECT_NAME": "FENGYUN 1C DEB", "OBJECT_ID": "1999-025AR", "EPOCH": "2025-12-09T14:23:34.269216", "MEAN_MOTION": 14.23625826, "ECCENTRICITY": 0.00897854, "INCLINATION": 98.5418, "RA_OF_ASC_NODE": 11.5627, "ARG_OF_PERICENTER": 148.2951, "MEAN_ANOMALY": 10.6244, "EPHEMERIS_TYPE": 0, "CLASSIFICATION_TYPE": "U", "NORAD_CAT_ID": 29751, "ELEMENT_SET_NO": 999, "REV_AT_EPOCH": 98028, "BSTAR": 0.00026837117, "MEAN_MOTION_DOT": 5.96e-06, "MEAN_MOTION_DDOT": 0}, "tle": {"line1": "1 29751U 99025AR  25343.59970219  .00000596  00000+0  26837-3 0  9996", "line2": "2 29751  98.5418  11.5627 0089785 148.2951  10.6244 14.23625826980283"}}, "geometry": {"type": "Point", "coordinates": [167.64763847124453, -69.8691258026038]}}, {"type": "Feature", "properties": {"norad_id": 29754, "name": "FENGYUN 1C DEB", "group": "fengyun-1c-debris", "lat": 68.4878433497466, "lon": 63.25129245292759, "alt_km": 847.3422446750437, "timestamp": "2025-12-09T21:34:11.678898+00:00", "meta": {"OBJECT_NAME": "FENGYUN 1C DEB", "OBJECT_ID": "1999-025AU", "EPOCH": "2025-12-09T12:49:46.733952", "MEAN_MOTION": 14.19130217, "ECCENTRICITY": 0.00357687, "INCLINATION": 98.8841, "RA_OF_ASC_NODE": 86.2662, "ARG_OF_PERICENTER": 248.5138, "MEAN_ANOMALY": 122.3783, "EPHEMERIS_TYPE": 0, "CLASSIFICATION_TYPE": "U", "NORAD_CAT_ID": 29754, "ELEMENT_SET_NO": 999, "REV_AT_EPOCH": 97309, "BSTAR": 0.0015598205, "MEAN_MOTION_DOT": 3.24e-05, "MEAN_MOTION_DDOT": 0}, "tle": {"line1": "1 29754U 99025AU  25343.53456868  .00003240  00000+0  15598-2 0  9992", "line2": "2 29754  98.8841  86.2662 0035768 248.5138 122.3783 14.19130217973090"}}, "geometry": {"type": "Point", "coordinates": [63.25129245292759, 68.4878433497466]}}, {"type": "Feature", "properties": {"norad_id": 29758, "name": "FENGYUN 1C DEB", "group": "fengyun-1c-debris", "lat": 12.163551712078887, "lon": -78.56300153713205, "alt_km": 769.3888650728177, "timestamp": "2025-12-09T21:34:11.678909+00:00", "meta": {"OBJECT_NAME": "FENGYUN 1C DEB", "OBJECT_ID": "1999-025AY", "EPOCH": "2025-12-09T07:45:03.089088", "MEAN_MOTION": 14.40899267, "ECCENTRICITY": 0.0020804, "INCLINATION": 98.8556, "RA_OF_ASC_NODE": 98.9153, "ARG_OF_PERICENTER": 318.0087, "MEAN_ANOMALY": 104.6046, "EPHEMERIS_TYPE": 0, "CLASSIFICATION_TYPE": "U", "NORAD_CAT_ID": 29758, "ELEMENT_SET_NO": 999, "REV_AT_EPOCH": 97622, "BSTAR": 0.0035725, "MEAN_MOTION_DOT": 0.0001146, "MEAN_MOTION_DDOT": 0}, "tle": {"line1": "1 29758U 99025AY  25343.32295242  .00011460  00000+0  35725-2 0  9997", "line2": "2 29758  98.8556  98.9153 0020804 318.0087 104.6046 14.40899267976227"}}, "geometry": {"type": "Point", "coordinates": [-78.56300153713205, 12.163551712078887]}}, {"type": "Feature", "properties": {"norad_id": 29760, "name": "FENGYUN 1C DEB", "group": "fengyun-1c-debris", "lat": -44.75557220285401, "lon": 157.35129288773462, "alt_km": 802.9553053404943, "timestamp": "2025-12-09T21:34:11.678919+00:00", "meta": {"OBJECT_NAME": "FENGYUN 1C DEB", "OBJECT_ID": "1999-025BA", "EPOCH": "2025-12-09T10:16:36.320160", "MEAN_MOTION": 14.08286187, "ECCENTRICITY": 0.01306577, "INCLINATION": 98.762, "RA_OF_ASC_NODE": 345.6902, "ARG_OF_PERICENTER": 182.905, "MEAN_ANOMALY": 177.1375, "EPHEMERIS_TYPE": 0, "CLASSIFICATION_TYPE": "U", "NORAD_CAT_ID": 29760, "ELEMENT_SET_NO": 999, "REV_AT_EPOCH": 97046, "BSTAR": 0.0003236296, "MEAN_MOTION_DOT": 5.56e-06, "MEAN_MOTION_DDOT": 0}, "tle": {"line1": "1 29760U 99025BA  25343.42819815  .00000556  00000+0  32363-3 0  9999", "line2": "2 29760  98.7620 345.6902 0130657 182.9050 177.1375 14.08286187970466"}}, "geometry": {"type": "Point", "coordinates": [157.35129288773462, -44.75557220285401]}}, {"type": "Feature", "properties": {"norad_id": 29762, "name": "FENGYUN 1C DEB", "group": "fengyun-1c-debris", "lat": 45.731089161063984, "lon": -42.1463276005178, "alt_km": 742.5957229740334, "timestamp": "2025-12-09T21:34:11.678930+00:00", "meta": {"OBJECT_NAME": "FENGYUN 1C DEB", "OBJECT_ID": "1999-025BC", "EPOCH": "2025-12-09T11:47:48.795072", "MEAN_MOTION": 14.22571493, "ECCENTRICITY": 0.02041893, "INCLINATION": 98.5793, "RA_OF_ASC_NODE": 326.3659, "ARG_OF_PERICENTER": 345.1061, "MEAN_ANOMALY": 135.0676, "EPHEMERIS_TYPE": 0, "CLASSIFICATION_TYPE": "U", "NORAD_CAT_ID": 29762, "ELEMENT_SET_NO": 999, "REV_AT_EPOCH": 97902, "BSTAR": 0.00076498044, "MEAN_MOTION_DOT": 2.069e-05, "MEAN_MOTION_DDOT": 0}, "tle": {"line1": "1 29762U 99025BC  25343.49153698  .00002069  00000+0  76498-3 0  9996", "line2": "2 29762  98.5793 326.3659 0204189 345.1061 135.0676 14.22571493979020"}}, "geometry": {"type": "Point", "coordinates": [-42.1463276005178, 45.731089161063984]}}, {"type": "Feature", "properties": {"norad_id": 29763, "name": "FENGYUN 1C DEB", "group": "fengyun-1c-debris", "lat": 57.35978427861563, "lon": -50.5412571092322, "alt_km": 919.7201833332665, "timestamp": "2025-12-09T21:34:11.678941+00:00", "meta": {"OBJECT_NAME": "FENGYUN 1C DEB", "OBJECT_ID": "1999-025BD", "EPOCH": "2025-12-09T11:39:25.699104", "MEAN_MOTION": 14.07873247, "ECCENTRICITY": 0.01272162, "INCLINATION": 98.7607, "RA_OF_ASC_NODE": 322.9886, "ARG_OF_PERICENTER": 189.6991, "MEAN_ANOMALY": 297.6875, "EPHEMERIS_TYPE": 0, "CLASSIFICATION_TYPE": "U", "NORAD_CAT_ID": 29763, "ELEMENT_SET_NO": 999, "REV_AT_EPOCH": 97004, "BSTAR": 0.00033979372, "MEAN_MOTION_DOT": 5.78e-06, "MEAN_MOTION_DDOT": 0}, "tle": {"line1": "1 29763U 99025BD  25343.48571411  .00000578  00000+0  33979-3 0  9993", "line2": "2 29763  98.7607 322.9886 0127216 189.6991 297.6875 14.07873247970043"}}, "geometry": {"type": "Point", "coordinates": [-50.5412571092322, 57.35978427861563]}}, {"type": "Feature", "properties": {"norad_id": 29765, "name": "FENGYUN 1C DEB", "group": "fengyun-1c-debris", "lat": 0.19787307071199337, "lon": 2.142584278534115, "alt_km": 896.5874786609847, "timestamp": "2025-12-09T21:34:11.678951+00:00", "meta": {"OBJECT_NAME": "FENGYUN 1C DEB", "OBJECT_ID": "1999-025BF", "EPOCH": "2025-12-09T07:56:31.284096", "MEAN_MOTION": 14.02152199, "ECCENTRICITY": 0.0059761, "INCLINATION": 98.8307, "RA_OF_ASC_NODE": 1.6233, "ARG_OF_PERICENTER": 102.0156, "MEAN_ANOMALY": 274.3022, "EPHEMERIS_TYPE": 0, "CLASSIFICATION_TYPE": "U", "NORAD_CAT_ID": 29765, "ELEMENT_SET_NO": 999, "REV_AT_EPOCH": 96703, "BSTAR": 0.00013967, "MEAN_MOTION_DOT": 1.75e-06, "MEAN_MOTION_DDOT": 0}, "tle": {"line1": "1 29765U 99025BF  25343.33091764  .00000175  00000+0  13967-3 0  9995", "line2": "2 29765  98.8307   1.6233 0059761 102.0156 274.3022 14.02152199967033"}}, "geometry": {"type": "Point", "coordinates": [2.142584278534115, 0.19787307071199337]}}, {"type": "Feature", "properties": {"norad_id": 29766, "name": "FENGYUN 1C DEB", "group": "fengyun-1c-debris", "lat": -20.83594898608246, "lon": 110.34882945771797, "alt_km": 917.3918705396509, "timestamp": "2025-12-09T21:34:11.678961+00:00", "meta": {"OBJECT_NAME": "FENGYUN 1C DEB", "OBJECT_ID": "1999-025BG", "EPOCH": "2025-12-09T09:09:30.449952", "MEAN_MOTION": 13.97027922, "ECCENTRICITY": 0.0146335, "INCLINATION": 98.6851, "RA_OF_ASC_NODE": 293.195, "ARG_OF_PERICENTER": 297.6256, "MEAN_ANOMALY": 185.583, "EPHEMERIS_TYPE": 0, "CLASSIFICATION_TYPE": "U", "NORAD_CAT_ID": 29766, "ELEMENT_SET_NO": 999, "REV_AT_EPOCH": 95757, "BSTAR": 0.0024988834, "MEAN_MOTION_DOT": 3.776e-05, "MEAN_MOTION_DDOT": 0}, "tle": {"line1": "1 29766U 99025BG  25343.38160243  .00003776  00000+0  24989-2 0  9995", "line2": "2 29766  98.6851 293.1950 0146335 297.6256 185.5830 13.97027922957572"}}, "geometry": {"type": "Point", "coordinates": [110.34882945771797, -20.83594898608246]}}, {"type": "Feature", "properties": {"norad_id": 29767, "name": "FENGYUN 1C DEB", "group": "fengyun-1c-debris", "lat": 26.449781622193626, "lon": -51.24429281085287, "alt_km": 699.2473967149535, "timestamp": "2025-12-09T21:34:11.678973+00:00", "meta": {"OBJECT_NAME": "FENGYUN 1C DEB", "OBJECT_ID": "1999-025BH", "EPOCH": "2025-12-09T10:01:57.112896", "MEAN_MOTION": 14.03289548, "ECCENTRICITY": 0.03332895, "INCLINATION": 98.1991, "RA_OF_ASC_NODE": 312.4345, "ARG_OF_PERICENTER": 70.6787, "MEAN_ANOMALY": 51.5202, "EPHEMERIS_TYPE": 0, "CLASSIFICATION_TYPE": "U", "NORAD_CAT_ID": 29767, "ELEMENT_SET_NO": 999, "REV_AT_EPOCH": 95553, "BSTAR": 0.0026376385, "MEAN_MOTION_DOT": 6.708e-05, "MEAN_MOTION_DDOT": 0}, "tle": {"line1": "1 29767U 99025BH  25343.41802214  .00006708  00000+0  26376-2 0  9991", "line2": "2 29767  98.1991 312.4345 0333289  70.6787  51.5202 14.03289548955531"}}, "geometry": {"type": "Point", "coordinates": [-51.24429281085287, 26.449781622193626]}}]}